[{"OBJECT_NAME":"ICEYE-X48","OBJECT_ID":"2025-052AV","EPOCH":"2026-03-09T16:59:01.566528","MEAN_MOTION":14.97356709,"ECCENTRICITY":0.00026878,"INCLINATION":97.6979,"RA_OF_ASC_NODE":322.3976,"ARG_OF_PERICENTER":141.7433,"MEAN_ANOMALY":218.398,"EPHEMERIS_TYPE":0,"CLASSIFICATION_TYPE":"U","NORAD_CAT_ID":63253,"ELEMENT_SET_NO":999,"REV_AT_EPOCH":5378,"BSTAR":0.00039588576,"MEAN_MOTION_DOT":4.541e-5,"MEAN_MOTION_DDOT":0},{"OBJECT_NAME":"STARLINK-34022","OBJECT_ID":"2025-094C","EPOCH":"2026-03-09T21:49:44.513472","MEAN_MOTION":14.98332442,"ECCENTRICITY":0.00030351,"INCLINATION":70.0017,"RA_OF_ASC_NODE":233.9987,"ARG_OF_PERICENTER":264.1312,"MEAN_ANOMALY":95.9501,"EPHEMERIS_TYPE":0,"CLASSIFICATION_TYPE":"U","NORAD_CAT_ID":63866,"ELEMENT_SET_NO":999,"REV_AT_EPOCH":4723,"BSTAR":0.00026420549,"MEAN_MOTION_DOT":3.061e-5,"MEAN_MOTION_DDOT":0}]
